NORAD_CAT_ID,OBJECT_NAME,OBJECT_TYPE,EPOCH,MEAN_MOTION,ECCENTRICITY,INCLINATION,RA_OF_ASC_NODE,ARG_OF_PERICENTER,MEAN_ANOMALY,BSTAR,MEAN_MOTION_DOT,MEAN_MOTION_DDOT,TLE_LINE0,TLE_LINE1,TLE_LINE2,SEMIMAJOR_AXIS,PERIOD,APOGEE,PERIGEE,DECAYED
55294.0,STARLINK-5286,PAYLOAD,2024-01-18 21:31:29,14.983336,0.0002323,69.9994,212.9881,270.5874,89.5019,9.4683e-05,1.037e-05,0.0,0 STARLINK-5286,1 55294U 23010AB  24018.89687137  .00001037  00000-0  94683-4 0  9990,2 55294  69.9994 212.9881 0002323 270.5874  89.5019 14.98333600 55826,6950.182,96.107,573.661,570.432,0.0
55294.0,STARLINK-5286,PAYLOAD,2024-01-19 13:32:50,14.98331903,0.0002161,69.9997,211.3052,268.4169,91.6742,2.3163e-05,1.84e-06,0.0,0 STARLINK-5286,1 55294U 23010AB  24019.56447326  .00000184  00000-0  23163-4 0  9996,2 55294  69.9997 211.3052 0002161 268.4169  91.6742 14.98331903 55927,6950.187,96.107,573.554,570.55,0.0
55294.0,STARLINK-5286,PAYLOAD,2024-01-19 19:57:22,14.98330863,0.0002192,69.9997,210.6321,268.4449,91.6459,5.4806e-06,-2.7e-07,0.0,0 STARLINK-5286,1 55294U 23010AB  24019.83151397 -.00000027  00000-0  54806-5 0  9992,2 55294  69.9997 210.6321 0002192 268.4449  91.6459 14.98330863 55663,6950.19,96.107,573.579,570.532,0.0
55294.0,STARLINK-5286,PAYLOAD,2024-01-19 21:33:30,14.98330402,0.0002196,69.9997,210.4637,268.7364,91.3544,-9.041e-07,-1.04e-06,0.0,0 STARLINK-5286,1 55294U 23010AB  24019.89827431 -.00000104  00000-0 -90410-6 0  9996,2 55294  69.9997 210.4637 0002196 268.7364  91.3544 14.98330402 55979,6950.192,96.107,573.583,570.53,0.0
55294.0,STARLINK-5286,PAYLOAD,2024-01-20 15:10:59,14.98331489,0.0002213,69.9997,208.6122,268.6415,91.4491,-1.0486e-06,-1.05e-06,0.0,0 STARLINK-5286,1 55294U 23010AB  24020.63263304 -.00000105  00000-0 -10486-5 0  9998,2 55294  69.9997 208.6122 0002213 268.6415  91.4491 14.98331489 56084,6950.188,96.107,573.591,570.515,0.0
55294.0,STARLINK-5286,PAYLOAD,2024-01-20 19:59:23,14.98330762,0.000223,69.9997,208.1072,268.8387,91.2517,-9.5193e-06,-2.06e-06,0.0,0 STARLINK-5286,1 55294U 23010AB  24020.83291358 -.00000206  00000-0 -95193-5 0  9990,2 55294  69.9997 208.1072 0002230 268.8387  91.2517 14.98330762 55812,6950.191,96.107,573.605,570.506,0.0
55294.0,STARLINK-5286,PAYLOAD,2024-01-20 21:35:31,14.98330409,0.0002232,69.9997,207.9389,269.0717,91.0187,-1.409e-05,-2.61e-06,0.0,0 STARLINK-5286,1 55294U 23010AB  24020.89967382 -.00000261  00000-0 -14090-4 0  9990,2 55294  69.9997 207.9389 0002232 269.0717  91.0187 14.98330409 56126,6950.192,96.107,573.608,570.505,0.0
55294.0,STARLINK-5286,PAYLOAD,2024-01-21 20:01:24,14.98331277,0.0002319,69.9996,205.5823,269.7649,90.3244,6.0496e-05,6.29e-06,0.0,0 STARLINK-5286,1 55294U 23010AB  24021.83431116  .00000629  00000-0  60496-4 0  9993,2 55294  69.9996 205.5823 0002319 269.7649  90.3244 14.98331277 55960,6950.189,96.107,573.666,570.442,0.0
55294.0,STARLINK-5286,PAYLOAD,2024-01-21 21:37:32,14.98331236,0.0002361,69.9995,205.4137,272.3728,87.716,5.6788e-05,5.85e-06,0.0,0 STARLINK-5286,1 55294U 23010AB  24021.90107111  .00000585  00000-0  56788-4 0  9996,2 55294  69.9995 205.4137 0002361 272.3728  87.7160 14.98331236 56278,6950.189,96.107,573.695,570.413,0.0
55294.0,STARLINK-5286,PAYLOAD,2024-01-22 20:03:25,14.98329014,0.0002345,69.9997,203.0575,271.1938,88.8952,3.7402e-05,3.53e-06,0.0,0 STARLINK-5286,1 55294U 23010AB  24022.83571363  .00000353  00000-0  37402-4 0  9998,2 55294  69.9997 203.0575 0002345 271.1938  88.8952 14.98329014 56117,6950.196,96.107,573.691,570.431,0.0
55294.0,STARLINK-5286,PAYLOAD,2024-01-22 21:39:33,14.98328688,0.0002348,69.9997,202.8891,271.4255,88.6635,3.1419e-05,2.82e-06,0.0,0 STARLINK-5286,1 55294U 23010AB  24022.90247374  .00000282  00000-0  31419-4 0  9991,2 55294  69.9997 202.8891 0002348 271.4255  88.6635 14.98328688 56429,6950.197,96.107,573.694,570.43,0.0
55294.0,STARLINK-5286,PAYLOAD,2024-01-23 21:41:34,14.98334779,0.0002386,69.9999,200.3646,273.0359,87.0527,5.1854e-05,5.26e-06,0.0,0 STARLINK-5286,1 55294U 23010AB  24023.90386832  .00000526  00000-0  51854-4 0  9991,2 55294  69.9999 200.3646 0002386 273.0359  87.0527 14.98334779 56574,6950.178,96.107,573.701,570.385,0.0
55294.0,STARLINK-5286,PAYLOAD,2024-01-24 13:42:54,14.98332091,0.0002366,70.0001,198.6822,269.3293,90.7595,5.9408e-05,6.16e-06,0.0,0 STARLINK-5286,1 55294U 23010AB  24024.57146930  .00000616  00000-0  59408-4 0  9991,2 55294  70.0001 198.6822 0002366 269.3293  90.7595 14.98332091 56671,6950.186,96.107,573.696,570.407,0.0
55294.0,STARLINK-5286,PAYLOAD,2024-01-24 21:43:35,14.98331906,0.0002393,70.0,197.8403,271.7277,88.3608,5.182e-05,5.25e-06,0.0,0 STARLINK-5286,1 55294U 23010AB  24024.90526911  .00000525  00000-0  51820-4 0  9998,2 55294  70.0000 197.8403 0002393 271.7277  88.3608 14.98331906 56723,6950.187,96.107,573.715,570.389,0.0
55294.0,STARLINK-5286,PAYLOAD,2024-01-25 13:44:56,14.98330648,0.0002302,70.0003,196.1577,268.4441,91.6455,-8.2968e-06,-1.92e-06,0.0,0 STARLINK-5286,1 55294U 23010AB  24025.57287101 -.00000192  00000-0 -82968-5 0  9997,2 55294  70.0003 196.1577 0002302 268.4441  91.6455 14.98330648 56826,6950.191,96.107,573.656,570.456,0.0
55294.0,STARLINK-5286,PAYLOAD,2024-01-25 21:45:36,14.98329244,0.0002337,70.0002,195.3156,271.0343,89.0549,-2.4021e-05,-3.79e-06,0.0,0 STARLINK-5286,1 55294U 23010AB  24025.90667214 -.00000379  00000-0 -24021-4 0  9993,2 55294  70.0002 195.3156 0002337 271.0343  89.0549 14.98329244 56878,6950.195,96.107,573.684,570.436,0.0
55294.0,STARLINK-5286,PAYLOAD,2024-01-26 13:46:56,14.98334185,0.0002477,69.9998,193.6319,269.7212,90.3663,4.8153e-05,4.82e-06,0.0,0 STARLINK-5286,1 55294U 23010AB  24026.57426617  .00000482  00000-0  48153-4 0  9992,2 55294  69.9998 193.6319 0002477 269.7212  90.3663 14.98334185 56978,6950.18,96.107,573.767,570.323,0.0
55294.0,STARLINK-5286,PAYLOAD,2024-01-26 18:35:20,14.98334953,0.0002465,69.9999,193.1271,269.9702,90.1175,5.6515e-05,5.82e-06,0.0,0 STARLINK-5286,1 55294U 23010AB  24026.77454506  .00000582  00000-0  56515-4 0  9994,2 55294  69.9999 193.1271 0002465 269.9702  90.1175 14.98334953 56704,6950.178,96.107,573.756,570.329,0.0
55294.0,STARLINK-5286,PAYLOAD,2024-01-27 13:48:58,14.98326207,0.0002411,70.0,191.1075,267.4049,92.6834,2.3679e-05,1.9e-06,0.0,0 STARLINK-5286,1 55294U 23010AB  24027.57567131  .00000190  00000-0  23679-4 0  9992,2 55294  70.0000 191.1075 0002411 267.4049  92.6834 14.98326207 56823,6950.205,96.107,573.745,570.394,0.0
55294.0,STARLINK-5286,PAYLOAD,2024-01-27 20:13:30,14.98325589,0.0002425,70.0002,190.4345,267.4125,92.6757,1.1863e-05,4.9e-07,0.0,0 STARLINK-5286,1 55294U 23010AB  24027.84271266  .00000049  00000-0  11863-4 0  9998,2 55294  70.0002 190.4345 0002425 267.4125  92.6757 14.98325589 57161,6950.207,96.107,573.757,570.386,0.0
55294.0,STARLINK-5286,PAYLOAD,2024-01-28 13:50:58,14.9833209,0.0002385,70.0005,188.5837,262.3047,97.7842,-8.9537e-06,-2e-06,0.0,0 STARLINK-5286,1 55294U 23010AB  24028.57706909 -.00000200  00000-0 -89537-5 0  9991,2 55294  70.0005 188.5837 0002385 262.3047  97.7842 14.98332090 57278,6950.186,96.107,573.709,570.394,0.0
55294.0,STARLINK-5286,PAYLOAD,2024-01-28 18:39:22,14.9833171,0.0002399,70.0005,188.0787,263.0073,97.0813,-1.2386e-05,-2.41e-06,0.0,0 STARLINK-5286,1 55294U 23010AB  24028.77734926 -.00000241  00000-0 -12386-4 0  9995,2 55294  70.0005 188.0787 0002399 263.0073  97.0813 14.98331710 57009,6950.188,96.107,573.72,570.385,0.0
55294.0,STARLINK-5286,PAYLOAD,2024-01-28 20:15:31,14.98331358,0.0002428,70.0004,187.9101,264.7508,95.3374,-1.7091e-05,-2.97e-06,0.0,0 STARLINK-5286,1 55294U 23010AB  24028.84410959 -.00000297  00000-0 -17091-4 0  9999,2 55294  70.0004 187.9101 0002428 264.7508  95.3374 14.98331358 57315,6950.189,96.107,573.741,570.366,0.0
55294.0,STARLINK-5286,PAYLOAD,2024-01-29 12:16:51,14.98331444,0.0002625,70.0,186.2264,268.7893,91.2966,9.1975e-05,1.005e-05,0.0,0 STARLINK-5286,1 55294U 23010AB  24029.51170614  .00001005  00000-0  91975-4 0  9994,2 55294  70.0000 186.2264 0002625 268.7893  91.2966 14.98331444 57412,6950.188,96.107,573.878,570.229,0.0
55294.0,STARLINK-5286,PAYLOAD,2024-01-30 12:18:52,14.98333827,0.0002773,69.9997,183.7011,271.1297,88.9544,4.0983e-05,3.96e-06,0.0,0 STARLINK-5286,1 55294U 23010AB  24030.51310518  .00000396  00000-0  40983-4 0  9990,2 55294  69.9997 183.7011 0002773 271.1297  88.9544 14.98333827 57261,6950.181,96.107,573.973,570.119,0.0
55294.0,STARLINK-5286,PAYLOAD,2024-01-30 13:55:00,14.98333257,0.0002777,69.9997,183.5329,270.9241,89.16,3.3551e-05,3.07e-06,0.0,0 STARLINK-5286,1 55294U 23010AB  24030.57986557  .00000307  00000-0  33551-4 0  9993,2 55294  69.9997 183.5329 0002777 270.9241  89.1600 14.98333257 57578,6950.183,96.107,573.978,570.118,0.0
55294.0,STARLINK-5286,PAYLOAD,2024-01-30 20:19:32,14.98333603,0.0002797,69.9998,182.8599,271.6374,88.4464,3.2612e-05,2.96e-06,0.0,0 STARLINK-5286,1 55294U 23010AB  24030.84690471  .00000296  00000-0  32612-4 0  9994,2 55294  69.9998 182.8599 0002797 271.6374  88.4464 14.98333603 57617,6950.182,96.107,573.991,570.103,0.0
55294.0,STARLINK-5286,PAYLOAD,2024-01-31 12:20:53,14.98329885,0.000255,70.0005,181.1772,266.4361,93.6507,-2.2377e-05,-3.6e-06,0.0,0 STARLINK-5286,1 55294U 23010AB  24031.51450812 -.00000360  00000-0 -22377-4 0  9993,2 55294  70.0005 181.1772 0002550 266.4361  93.6507 14.98329885 57410,6950.193,96.107,573.831,570.286,0.0
55294.0,STARLINK-5286,PAYLOAD,2024-02-01 12:22:54,14.9832696,0.0002546,70.0007,178.6532,256.9789,103.1086,-1.2635e-05,-2.44e-06,0.0,0 STARLINK-5286,1 55294U 23010AB  24032.51590960 -.00000244  00000-0 -12635-4 0  9990,2 55294  70.0007 178.6532 0002546 256.9789 103.1086 14.98326960 57869,6950.202,96.107,573.837,570.298,0.0
55294.0,STARLINK-5286,PAYLOAD,2024-02-01 20:23:34,14.98327737,0.0002535,70.0007,177.8116,256.408,103.6797,-1.1606e-06,-1.07e-06,0.0,0 STARLINK-5286,1 55294U 23010AB  24032.84970940 -.00000107  00000-0 -11606-5 0  9992,2 55294  70.0007 177.8116 0002535 256.4080 103.6797 14.98327737 57615,6950.2,96.107,573.827,570.303,0.0
